{"type": "FeatureCollection", "features": [ {"type": "Feature", "properties": {"norad_id": 39634, "name": "SENTINEL-1A", "group": "resource", "lat": -63.82559073700012, "lon": 16.46083685453596, "alt_km": 703.7152755753068, "timestamp": "2025-12-20T07:33:50.460646+00:00", "meta": {"OBJECT_NAME": "SENTINEL-1A", "OBJECT_ID": "2014-016A", "EPOCH": "2025-12-19T23:37:59.408832", "MEAN_MOTION": 14.59201682, "ECCENTRICITY": 0.00012543, "INCLINATION": 98.1796, "RA_OF_ASC_NODE": 359.1193, "ARG_OF_PERICENTER": 85.4707, "MEAN_ANOMALY": 274.6636, "EPHEMERIS_TYPE": 0, "CLASSIFICATION_TYPE": "U", "NORAD_CAT_ID": 39634, "ELEMENT_SET_NO": 999, "REV_AT_EPOCH": 62388, "BSTAR": 9.698889e-06, "MEAN_MOTION_DOT": 0, "MEAN_MOTION_DDOT": 0}, "tle": {"line1": "1 39634U 14016A   25353.98471538  .00000000  00000+0  96989-5 0  9995", "line2": "2 39634  98.1796 359.1193 0001254  85.4707 274.6636 14.59201682623880"}}, "geometry": {"type": "Point", "coordinates": [16.46083685453596, -63.82559073700012]}}, {"type": "Feature", "properties": {"norad_id": 39731, "name": "KAZEOSAT 1", "group": "resource", "lat": 16.744092084656774, "lon": -111.41665751658657, "alt_km": 751.9107608137829, "timestamp": "2025-12-20T07:33:50.460657+00:00", "meta": {"OBJECT_NAME": "KAZEOSAT 1", "OBJECT_ID": "2014-024A", "EPOCH": "2025-12-19T22:29:04.724736", "MEAN_MOTION": 14.42065826, "ECCENTRICITY": 0.00011661, "INCLINATION": 98.3433, "RA_OF_ASC_NODE": 65.6831, "ARG_OF_PERICENTER": 96.3703, "MEAN_ANOMALY": 263.762, "EPHEMERIS_TYPE": 0, "CLASSIFICATION_TYPE": "U", "NORAD_CAT_ID": 39731, "ELEMENT_SET_NO": 999, "REV_AT_EPOCH": 61272, "BSTAR": 2.1723045e-05, "MEAN_MOTION_DOT": 2.8e-07, "MEAN_MOTION_DDOT": 0}, "tle": {"line1": "1 39731U 14024A   25353.93686024  .00000028  00000+0  21723-4 0  9998", "line2": "2 39731  98.3433  65.6831 0001166  96.3703 263.7620 14.42065826612728"}}, "geometry": {"type": "Point", "coordinates": [-111.41665751658657, 16.744092084656774]}}, {"type": "Feature", "properties": {"norad_id": 39766, "name": "ALOS-2", "group": "resource", "lat": -14.565196727192715, "lon": 91.12752293865474, "alt_km": 636.0814258829696, "timestamp": "2025-12-20T07:33:50.460667+00:00", "meta": {"OBJECT_NAME": "ALOS-2", "OBJECT_ID": "2014-029A", "EPOCH": "2025-12-19T21:53:28.319712", "MEAN_MOTION": 14.79468452, "ECCENTRICITY": 0.00014561, "INCLINATION": 97.9232, "RA_OF_ASC_NODE": 88.6565, "ARG_OF_PERICENTER": 98.5247, "MEAN_ANOMALY": 261.613, "EPHEMERIS_TYPE": 0, "CLASSIFICATION_TYPE": "U", "NORAD_CAT_ID": 39766, "ELEMENT_SET_NO": 999, "REV_AT_EPOCH": 62507, "BSTAR": 0.00018916434, "MEAN_MOTION_DOT": 1.361e-05, "MEAN_MOTION_DDOT": 0}, "tle": {"line1": "1 39766U 14029A   25353.91213333  .00001361  00000+0  18916-3 0  9998", "line2": "2 39766  97.9232  88.6565 0001456  98.5247 261.6130 14.79468452625073"}}, "geometry": {"type": "Point", "coordinates": [91.12752293865474, -14.565196727192715]}}, {"type": "Feature", "properties": {"norad_id": 40010, "name": "KAZEOSAT 2", "group": "resource", "lat": 49.985603376882835, "lon": -170.8515597576163, "alt_km": 612.1571286353337, "timestamp": "2025-12-20T07:33:50.460678+00:00", "meta": {"OBJECT_NAME": "KAZEOSAT 2", "OBJECT_ID": "2014-033A", "EPOCH": "2025-12-19T21:38:05.617824", "MEAN_MOTION": 14.85177742, "ECCENTRICITY": 0.00082201, "INCLINATION": 97.5499, "RA_OF_ASC_NODE": 197.8459, "ARG_OF_PERICENTER": 181.6739, "MEAN_ANOMALY": 178.445, "EPHEMERIS_TYPE": 0, "CLASSIFICATION_TYPE": "U", "NORAD_CAT_ID": 40010, "ELEMENT_SET_NO": 999, "REV_AT_EPOCH": 62234, "BSTAR": 1.9576454e-05, "MEAN_MOTION_DOT": 1.18e-06, "MEAN_MOTION_DDOT": 0}, "tle": {"line1": "1 40010U 14033A   25353.90145391  .00000118  00000+0  19576-4 0  9997", "line2": "2 40010  97.5499 197.8459 0008220 181.6739 178.4450 14.85177742622342"}}, "geometry": {"type": "Point", "coordinates": [-170.8515597576163, 49.985603376882835]}}, {"type": "Feature", "properties": {"norad_id": 40011, "name": "HODOYOSHI-4", "group": "resource", "lat": -21.740856603209036, "lon": -0.20299992039771028, "alt_km": 596.2816817779667, "timestamp": "2025-12-20T07:33:50.460688+00:00", "meta": {"OBJECT_NAME": "HODOYOSHI-4", "OBJECT_ID": "2014-033B", "EPOCH": "2025-12-19T22:35:16.480608", "MEAN_MOTION": 14.87505718, "ECCENTRICITY": 0.00237249, "INCLINATION": 97.5405, "RA_OF_ASC_NODE": 182.4695, "ARG_OF_PERICENTER": 176.4834, "MEAN_ANOMALY": 183.6554, "EPHEMERIS_TYPE": 0, "CLASSIFICATION_TYPE": "U", "NORAD_CAT_ID": 40011, "ELEMENT_SET_NO": 999, "REV_AT_EPOCH": 62215, "BSTAR": 0.00017409677, "MEAN_MOTION_DOT": 1.534e-05, "MEAN_MOTION_DDOT": 0}, "tle": {"line1": "1 40011U 14033B   25353.94116297  .00001534  00000+0  17410-3 0  9992", "line2": "2 40011  97.5405 182.4695 0023724 176.4834 183.6554 14.87505718622158"}}, "geometry": {"type": "Point", "coordinates": [-0.20299992039771028, -21.740856603209036]}}, {"type": "Feature", "properties": {"norad_id": 40013, "name": "DEIMOS-2", "group": "resource", "lat": 31.008818034022866, "lon": 54.4723747856818, "alt_km": 586.2041122419269, "timestamp": "2025-12-20T07:33:50.460699+00:00", "meta": {"OBJECT_NAME": "DEIMOS-2", "OBJECT_ID": "2014-033D", "EPOCH": "2025-12-19T21:14:59.403264", "MEAN_MOTION": 14.93004941, "ECCENTRICITY": 0.00014386, "INCLINATION": 97.6068, "RA_OF_ASC_NODE": 229.4495, "ARG_OF_PERICENTER": 105.7316, "MEAN_ANOMALY": 254.4062, "EPHEMERIS_TYPE": 0, "CLASSIFICATION_TYPE": "U", "NORAD_CAT_ID": 40013, "ELEMENT_SET_NO": 999, "REV_AT_EPOCH": 61096, "BSTAR": 0.00024796349, "MEAN_MOTION_DOT": 2.523e-05, "MEAN_MOTION_DDOT": 0}, "tle": {"line1": "1 40013U 14033D   25353.88540976  .00002523  00000+0  24796-3 0  9996", "line2": "2 40013  97.6068 229.4495 0001438 105.7316 254.4062 14.93004941610960"}}, "geometry": {"type": "Point", "coordinates": [54.4723747856818, 31.008818034022866]}}, {"type": "Feature", "properties": {"norad_id": 40015, "name": "HODOYOSHI-3", "group": "resource", "lat": 53.435586777103815, "lon": 149.42158102214387, "alt_km": 631.1442532488145, "timestamp": "2025-12-20T07:33:50.460710+00:00", "meta": {"OBJECT_NAME": "HODOYOSHI-3", "OBJECT_ID": "2014-033F", "EPOCH": "2025-12-19T21:36:55.920672", "MEAN_MOTION": 14.84829005, "ECCENTRICITY": 0.00322047, "INCLINATION": 97.6204, "RA_OF_ASC_NODE": 159.4244, "ARG_OF_PERICENTER": 223.5409, "MEAN_ANOMALY": 136.3264, "EPHEMERIS_TYPE": 0, "CLASSIFICATION_TYPE": "U", "NORAD_CAT_ID": 40015, "ELEMENT_SET_NO": 999, "REV_AT_EPOCH": 62101, "BSTAR": 0.00013959445, "MEAN_MOTION_DOT": 1.144e-05, "MEAN_MOTION_DDOT": 0}, "tle": {"line1": "1 40015U 14033F   25353.90064723  .00001144  00000+0  13959-3 0  9999", "line2": "2 40015  97.6204 159.4244 0032204 223.5409 136.3264 14.84829005621011"}}, "geometry": {"type": "Point", "coordinates": [149.42158102214387, 53.435586777103815]}}, {"type": "Feature", "properties": {"norad_id": 40053, "name": "SPOT 7", "group": "resource", "lat": -21.411965049999438, "lon": -126.98116360439175, "alt_km": 696.5906317837926, "timestamp": "2025-12-20T07:33:50.460721+00:00", "meta": {"OBJECT_NAME": "SPOT 7", "OBJECT_ID": "2014-034A", "EPOCH": "2025-12-19T22:25:28.367040", "MEAN_MOTION": 14.60741794, "ECCENTRICITY": 0.00015566, "INCLINATION": 98.0904, "RA_OF_ASC_NODE": 55.8444, "ARG_OF_PERICENTER": 85.3979, "MEAN_ANOMALY": 274.7399, "EPHEMERIS_TYPE": 0, "CLASSIFICATION_TYPE": "U", "NORAD_CAT_ID": 40053, "ELEMENT_SET_NO": 999, "REV_AT_EPOCH": 61096, "BSTAR": 5.6573621e-05, "MEAN_MOTION_DOT": 2.3e-06, "MEAN_MOTION_DDOT": 0}, "tle": {"line1": "1 40053U 14034A   25353.93435610  .00000230  00000+0  56574-4 0  9998", "line2": "2 40053  98.0904  55.8444 0001556  85.3979 274.7399 14.60741794610968"}}, "geometry": {"type": "Point", "coordinates": [-126.98116360439175, -21.411965049999438]}}, {"type": "Feature", "properties": {"norad_id": 40072, "name": "SKYSAT-B", "group": "resource", "lat": 38.25925132690584, "lon": 125.08259858893267, "alt_km": 598.9056226366274, "timestamp": "2025-12-20T07:33:50.460731+00:00", "meta": {"OBJECT_NAME": "SKYSAT-B", "OBJECT_ID": "2014-037D", "EPOCH": "2025-12-19T19:37:46.870176", "MEAN_MOTION": 14.87350414, "ECCENTRICITY": 0.0006578, "INCLINATION": 98.3621, "RA_OF_ASC_NODE": 297.898, "ARG_OF_PERICENTER": 130.2703, "MEAN_ANOMALY": 229.9088, "EPHEMERIS_TYPE": 0, "CLASSIFICATION_TYPE": "U", "NORAD_CAT_ID": 40072, "ELEMENT_SET_NO": 999, "REV_AT_EPOCH": 61929, "BSTAR": 0.00013824731, "MEAN_MOTION_DOT": 1.188e-05, "MEAN_MOTION_DDOT": 0}, "tle": {"line1": "1 40072U 14037D   25353.81790359  .00001188  00000+0  13825-3 0  9997", "line2": "2 40072  98.3621 297.8980 0006578 130.2703 229.9088 14.87350414619291"}}, "geometry": {"type": "Point", "coordinates": [125.08259858893267, 38.25925132690584]}}, {"type": "Feature", "properties": {"norad_id": 40115, "name": "WORLDVIEW-3 (WV-3)", "group": "resource", "lat": -25.354367758231504, "lon": 70.26331066311214, "alt_km": 621.4737377969514, "timestamp": "2025-12-20T07:33:50.460742+00:00", "meta": {"OBJECT_NAME": "WORLDVIEW-3 (WV-3)", "OBJECT_ID": "2014-048A", "EPOCH": "2025-12-19T21:58:26.607936", "MEAN_MOTION": 14.84662854, "ECCENTRICITY": 0.00017717, "INCLINATION": 97.8772, "RA_OF_ASC_NODE": 66.1069, "ARG_OF_PERICENTER": 137.3575, "MEAN_ANOMALY": 222.7777, "EPHEMERIS_TYPE": 0, "CLASSIFICATION_TYPE": "U", "NORAD_CAT_ID": 40115, "ELEMENT_SET_NO": 999, "REV_AT_EPOCH": 61530, "BSTAR": 9.7151579e-05, "MEAN_MOTION_DOT": 7.68e-06, "MEAN_MOTION_DDOT": 0}, "tle": {"line1": "1 40115U 14048A   25353.91558574  .00000768  00000+0  97152-4 0  9998", "line2": "2 40115  97.8772  66.1069 0001771 137.3575 222.7777 14.84662854615305"}}, "geometry": {"type": "Point", "coordinates": [70.26331066311214, -25.354367758231504]}}]}